[{"OBJECT_NAME":"SL-16 R/B","OBJECT_ID":"1993-059B","EPOCH":"2026-04-23T10:29:19.680576","MEAN_MOTION":14.17238112,"ECCENTRICITY":0.00159567,"INCLINATION":70.989,"RA_OF_ASC_NODE":276.7614,"ARG_OF_PERICENTER":148.503,"MEAN_ANOMALY":211.7052,"EPHEMERIS_TYPE":0,"CLASSIFICATION_TYPE":"U","NORAD_CAT_ID":22803,"ELEMENT_SET_NO":999,"REV_AT_EPOCH":68587,"BSTAR":-5.829764e-6,"MEAN_MOTION_DOT":-6.0e-7,"MEAN_MOTION_DDOT":0},{"OBJECT_NAME":"ARIANE 40 R/B","OBJECT_ID":"1993-061H","EPOCH":"2026-04-23T04:19:36.202368","MEAN_MOTION":14.32883134,"ECCENTRICITY":0.00114917,"INCLINATION":98.4847,"RA_OF_ASC_NODE":181.1729,"ARG_OF_PERICENTER":147.5804,"MEAN_ANOMALY":212.6088,"EPHEMERIS_TYPE":0,"CLASSIFICATION_TYPE":"U","NORAD_CAT_ID":22830,"ELEMENT_SET_NO":999,"REV_AT_EPOCH":70047,"BSTAR":6.3335188e-5,"MEAN_MOTION_DOT":1.3e-6,"MEAN_MOTION_DDOT":0},{"OBJECT_NAME":"COSMOS 2278","OBJECT_ID":"1994-023A","EPOCH":"2026-04-23T05:23:01.208256","MEAN_MOTION":14.14385784,"ECCENTRICITY":0.00103319,"INCLINATION":71.0529,"RA_OF_ASC_NODE":81.92,"ARG_OF_PERICENTER":311.1831,"MEAN_ANOMALY":48.84,"EPHEMERIS_TYPE":0,"CLASSIFICATION_TYPE":"U","NORAD_CAT_ID":23087,"ELEMENT_SET_NO":999,"REV_AT_EPOCH":65110,"BSTAR":0.00016163547,"MEAN_MOTION_DOT":2.62e-6,"MEAN_MOTION_DDOT":0},{"OBJECT_NAME":"SL-16 R/B","OBJECT_ID":"1994-023B","EPOCH":"2026-04-23T00:55:35.507424","MEAN_MOTION":14.150157,"ECCENTRICITY":0.00052921,"INCLINATION":71.0005,"RA_OF_ASC_NODE":337.7523,"ARG_OF_PERICENTER":245.5091,"MEAN_ANOMALY":114.548,"EPHEMERIS_TYPE":0,"CLASSIFICATION_TYPE":"U","NORAD_CAT_ID":23088,"ELEMENT_SET_NO":999,"REV_AT_EPOCH":65236,"BSTAR":-6.5819216e-5,"MEAN_MOTION_DOT":-1.75e-6,"MEAN_MOTION_DDOT":0},{"OBJECT_NAME":"SL-16 R/B","OBJECT_ID":"1994-074B","EPOCH":"2026-04-23T00:36:56.592864","MEAN_MOTION":14.79453631,"ECCENTRICITY":0.00080672,"INCLINATION":97.7042,"RA_OF_ASC_NODE":142.0341,"ARG_OF_PERICENTER":80.0204,"MEAN_ANOMALY":336.1604,"EPHEMERIS_TYPE":0,"CLASSIFICATION_TYPE":"U","NORAD_CAT_ID":23343,"ELEMENT_SET_NO":999,"REV_AT_EPOCH":69380,"BSTAR":4.5341972e-5,"MEAN_MOTION_DOT":2.89e-6,"MEAN_MOTION_DDOT":0},{"OBJECT_NAME":"SL-16 R/B","OBJECT_ID":"1994-077B","EPOCH":"2026-04-23T11:56:31.491744","MEAN_MOTION":14.15571523,"ECCENTRICITY":5.599e-5,"INCLINATION":70.9824,"RA_OF_ASC_NODE":258.2175,"ARG_OF_PERICENTER":132.9628,"MEAN_ANOMALY":227.1542,"EPHEMERIS_TYPE":0,"CLASSIFICATION_TYPE":"U","NORAD_CAT_ID":23405,"ELEMENT_SET_NO":999,"REV_AT_EPOCH":62257,"BSTAR":0.00011328935,"MEAN_MOTION_DOT":1.74e-6,"MEAN_MOTION_DDOT":0},{"OBJECT_NAME":"ARIANE 40+ R/B","OBJECT_ID":"1995-021B","EPOCH":"2026-04-23T05:09:47.697696","MEAN_MOTION":14.3980179,"ECCENTRICITY":0.00068973,"INCLINATION":98.4433,"RA_OF_ASC_NODE":184.0786,"ARG_OF_PERICENTER":19.5974,"MEAN_ANOMALY":355.5324,"EPHEMERIS_TYPE":0,"CLASSIFICATION_TYPE":"U","NORAD_CAT_ID":23561,"ELEMENT_SET_NO":999,"REV_AT_EPOCH":62565,"BSTAR":7.061784e-5,"MEAN_MOTION_DOT":1.78e-6,"MEAN_MOTION_DDOT":0},{"OBJECT_NAME":"SL-16 R/B","OBJECT_ID":"1995-058B","EPOCH":"2026-04-23T07:04:25.693248","MEAN_MOTION":14.15505257,"ECCENTRICITY":0.0010847,"INCLINATION":71.0203,"RA_OF_ASC_NODE":86.6056,"ARG_OF_PERICENTER":43.3852,"MEAN_ANOMALY":316.8123,"EPHEMERIS_TYPE":0,"CLASSIFICATION_TYPE":"U","NORAD_CAT_ID":23705,"ELEMENT_SET_NO":999,"REV_AT_EPOCH":57416,"BSTAR":-1.7144384e-5,"MEAN_MOTION_DOT":-8.1e-7,"MEAN_MOTION_DDOT":0},{"OBJECT_NAME":"SL-16 R/B","OBJECT_ID":"1996-051B","EPOCH":"2026-04-23T06:53:52.708704","MEAN_MOTION":14.12427027,"ECCENTRICITY":0.0012499,"INCLINATION":70.7596,"RA_OF_ASC_NODE":80.8408,"ARG_OF_PERICENTER":71.1131,"MEAN_ANOMALY":289.1342,"EPHEMERIS_TYPE":0,"CLASSIFICATION_TYPE":"U","NORAD_CAT_ID":24298,"ELEMENT_SET_NO":999,"REV_AT_EPOCH":52794,"BSTAR":6.6533588e-5,"MEAN_MOTION_DOT":7.4e-7,"MEAN_MOTION_DDOT":0},{"OBJECT_NAME":"ORBVIEW 2 (SEASTAR)","OBJECT_ID":"1997-037A","EPOCH":"2026-04-22T22:58:06.075264","MEAN_MOTION":14.3552348,"ECCENTRICITY":0.00011602,"INCLINATION":98.8639,"RA_OF_ASC_NODE":278.4589,"ARG_OF_PERICENTER":304.1571,"MEAN_ANOMALY":55.9503,"EPHEMERIS_TYPE":0,"CLASSIFICATION_TYPE":"U","NORAD_CAT_ID":24883,"ELEMENT_SET_NO":999,"REV_AT_EPOCH":51482,"BSTAR":8.0610456e-5,"MEAN_MOTION_DOT":1.85e-6,"MEAN_MOTION_DDOT":0},{"OBJECT_NAME":"SL-16 R/B","OBJECT_ID":"1998-043G","EPOCH":"2026-04-23T10:12:42.848352","MEAN_MOTION":14.26059316,"ECCENTRICITY":0.00088436,"INCLINATION":98.8323,"RA_OF_ASC_NODE":67.1271,"ARG_OF_PERICENTER":242.2168,"MEAN_ANOMALY":117.8115,"EPHEMERIS_TYPE":0,"CLASSIFICATION_TYPE":"U","NORAD_CAT_ID":25400,"ELEMENT_SET_NO":999,"REV_AT_EPOCH":44536,"BSTAR":3.7008931e-5,"MEAN_MOTION_DOT":4.3e-7,"MEAN_MOTION_DDOT":0},{"OBJECT_NAME":"SL-16 R/B","OBJECT_ID":"1998-045B","EPOCH":"2026-04-22T22:20:03.173856","MEAN_MOTION":14.16197758,"ECCENTRICITY":0.0009249,"INCLINATION":71.0096,"RA_OF_ASC_NODE":88.5346,"ARG_OF_PERICENTER":306.731,"MEAN_ANOMALY":53.2963,"EPHEMERIS_TYPE":0,"CLASSIFICATION_TYPE":"U","NORAD_CAT_ID":25407,"ELEMENT_SET_NO":999,"REV_AT_EPOCH":43336,"BSTAR":-0.0001046,"MEAN_MOTION_DOT":-2.55e-6,"MEAN_MOTION_DDOT":0},{"OBJECT_NAME":"ISS (ZARYA)","OBJECT_ID":"1998-067A","EPOCH":"2026-04-23T13:18:50.975424","MEAN_MOTION":15.48911267,"ECCENTRICITY":0.00068194,"INCLINATION":51.632,"RA_OF_ASC_NODE":210.5007,"ARG_OF_PERICENTER":341.8336,"MEAN_ANOMALY":18.2408,"EPHEMERIS_TYPE":0,"CLASSIFICATION_TYPE":"U","NORAD_CAT_ID":25544,"ELEMENT_SET_NO":999,"REV_AT_EPOCH":56328,"BSTAR":0.00016716018,"MEAN_MOTION_DOT":8.745e-5,"MEAN_MOTION_DDOT":0},{"OBJECT_NAME":"CZ-4B R/B","OBJECT_ID":"1999-025C","EPOCH":"2026-04-23T02:37:27.179040","MEAN_MOTION":14.18273606,"ECCENTRICITY":0.00364805,"INCLINATION":98.6541,"RA_OF_ASC_NODE":156.3199,"ARG_OF_PERICENTER":215.6664,"MEAN_ANOMALY":197.9829,"EPHEMERIS_TYPE":0,"CLASSIFICATION_TYPE":"U","NORAD_CAT_ID":25732,"ELEMENT_SET_NO":999,"REV_AT_EPOCH":39446,"BSTAR":3.0415042e-5,"MEAN_MOTION_DOT":2.0e-7,"MEAN_MOTION_DDOT":0},{"OBJECT_NAME":"OKEAN-O","OBJECT_ID":"1999-039A","EPOCH":"2026-04-23T03:03:24.342912","MEAN_MOTION":14.80398808,"ECCENTRICITY":0.00014589,"INCLINATION":97.936,"RA_OF_ASC_NODE":172.5471,"ARG_OF_PERICENTER":114.919,"MEAN_ANOMALY":245.2174,"EPHEMERIS_TYPE":0,"CLASSIFICATION_TYPE":"U","NORAD_CAT_ID":25860,"ELEMENT_SET_NO":999,"REV_AT_EPOCH":44096,"BSTAR":5.7247954e-5,"MEAN_MOTION_DOT":3.85e-6,"MEAN_MOTION_DDOT":0},{"OBJECT_NAME":"SL-16 R/B","OBJECT_ID":"1999-039B","EPOCH":"2026-04-23T03:11:38.859360","MEAN_MOTION":14.81786986,"ECCENTRICITY":0.00161224,"INCLINATION":97.9881,"RA_OF_ASC_NODE":172.1426,"ARG_OF_PERICENTER":111.6218,"MEAN_ANOMALY":248.6714,"EPHEMERIS_TYPE":0,"CLASSIFICATION_TYPE":"U","NORAD_CAT_ID":25861,"ELEMENT_SET_NO":999,"REV_AT_EPOCH":44344,"BSTAR":5.1509362e-5,"MEAN_MOTION_DOT":3.53e-6,"MEAN_MOTION_DDOT":0},{"OBJECT_NAME":"DELTA 2 R/B","OBJECT_ID":"1999-041E","EPOCH":"2026-04-23T11:06:39.250656","MEAN_MOTION":14.11924754,"ECCENTRICITY":0.05025092,"INCLINATION":51.7593,"RA_OF_ASC_NODE":122.4123,"ARG_OF_PERICENTER":120.4575,"MEAN_ANOMALY":244.6984,"EPHEMERIS_TYPE":0,"CLASSIFICATION_TYPE":"U","NORAD_CAT_ID":25876,"ELEMENT_SET_NO":999,"REV_AT_EPOCH":36935,"BSTAR":9.8969585e-5,"MEAN_MOTION_DOT":3.67e-6,"MEAN_MOTION_DDOT":0}]
