SL-16 R/B               
1 22803U 93059B   26113.43703334 -.00000060  00000+0 -58298-5 0  9995
2 22803  70.9890 276.7614 0015956 148.5030 211.7052 14.17238112685872
ARIANE 40 R/B           
1 22830U 93061H   26113.18028012  .00000130  00000+0  63335-4 0  9996
2 22830  98.4847 181.1729 0011491 147.5804 212.6088 14.32883134700473
COSMOS 2278             
1 23087U 94023A   26113.22431954  .00000262  00000+0  16164-3 0  9991
2 23087  71.0529  81.9200 0010331 311.1831  48.8400 14.14385784651104
SL-16 R/B               
1 23088U 94023B   26113.03860541 -.00000175  00000+0 -65819-4 0  9996
2 23088  71.0005 337.7523 0005292 245.5091 114.5480 14.15015700652369
SL-16 R/B               
1 23343U 94074B   26113.02565501  .00000289  00000+0  45342-4 0  9996
2 23343  97.7042 142.0341 0008067  80.0204 336.1604 14.79453631693808
SL-16 R/B               
1 23405U 94077B   26113.49758671  .00000174  00000+0  11329-3 0  9991
2 23405  70.9824 258.2175 0000559 132.9628 227.1542 14.15571523622575
ARIANE 40+ R/B          
1 23561U 95021B   26113.21513539  .00000178  00000+0  70618-4 0  9997
2 23561  98.4433 184.0786 0006897  19.5974 355.5324 14.39801790625652
SL-16 R/B               
1 23705U 95058B   26113.29474182 -.00000081  00000+0 -17144-4 0  9995
2 23705  71.0203  86.6056 0010847  43.3852 316.8123 14.15505257574160
SL-16 R/B               
1 24298U 96051B   26113.28741561  .00000074  00000+0  66534-4 0  9991
2 24298  70.7596  80.8408 0012499  71.1131 289.1342 14.12427027527944
ORBVIEW 2 (SEASTAR)     
1 24883U 97037A   26112.95701476  .00000185  00000+0  80610-4 0  9994
2 24883  98.8639 278.4589 0001160 304.1571  55.9503 14.35523480514824
SL-16 R/B               
1 25400U 98043G   26113.42549593  .00000043  00000+0  37009-4 0  9998
2 25400  98.8323  67.1271 0008843 242.2168 117.8115 14.26059316445361
SL-16 R/B               
1 25407U 98045B   26112.93059229 -.00000255  00000+0 -10460-3 0  9992
2 25407  71.0096  88.5346 0009249 306.7310  53.2963 14.16197758433367
ISS (ZARYA)             
1 25544U 98067A   26113.55475666  .00008745  00000+0  16716-3 0  9994
2 25544  51.6320 210.5007 0006819 341.8336  18.2408 15.48911267563287
CZ-4B R/B               
1 25732U 99025C   26113.10934235  .00000020  00000+0  30415-4 0  9992
2 25732  98.6541 156.3199 0036480 215.6664 197.9829 14.18273606394468
OKEAN-O                 
1 25860U 99039A   26113.12736508  .00000385  00000+0  57248-4 0  9991
2 25860  97.9360 172.5471 0001458 114.9190 245.2174 14.80398808440964
SL-16 R/B               
1 25861U 99039B   26113.13308865  .00000353  00000+0  51509-4 0  9993
2 25861  97.9881 172.1426 0016122 111.6218 248.6714 14.81786986443440
DELTA 2 R/B             
1 25876U 99041E   26113.46295429  .00000367  00000+0  98970-4 0  9997
2 25876  51.7593 122.4123 0502509 120.4575 244.6984 14.11924754369351
